STARLINK-6172           
1 57130U 23090AF  24313.50958093  .00001453  00000+0  12258-3 0  9995
2 57130  43.0055  36.0366 0001189 261.4201  98.6507 15.02539931 76145
STARLINK-6162           
1 57131U 23090AG  24313.50885209  .00002405  00000+0  19306-3 0  9993
2 57131  43.0033  23.8771 0001238 255.3905 104.6800 15.02526856 76285
STARLINK-6128           
1 57132U 23090AH  24312.70513772  .00006324  00000+0  48214-3 0  9992
2 57132  43.0066  40.3201 0002231 280.4656  79.5935 15.02590346 76970
STARLINK-6143           
1 57133U 23090AJ  24313.49553021  .00001545  00000+0  12945-3 0  9993
2 57133  43.0048  23.7735 0001193 264.1287  95.9419 15.02537605 76285
STARLINK-6133           
1 57134U 23090AK  24313.50995431  .00004381  00000+0  33910-3 0  9997
2 57134  43.0019  23.8832 0001470 273.4367  86.6307 15.02546906 76280
STARLINK-6127           
1 57135U 23090AL  24313.48553890  .00001517  00000+0  12733-3 0  9992
2 57135  43.0043  23.7001 0001330 278.7600  81.3091 15.02538555 76281
STARLINK-6112           
1 57136U 23090AM  24313.50662584  .00005320  00000+0  40843-3 0  9996
2 57136  43.0057  23.8613 0001042 274.9418  85.1305 15.02548968 76281
STARLINK-5347           
1 57137U 23090AN  24313.49331044 -.00001327  00000+0 -83181-4 0  9997
2 57137  43.0029  23.7593 0000765 251.6958 108.3801 15.02532712 76288
STARLINK-5336           
1 57138U 23090AP  24313.50551382  .00003199  00000+0  25165-3 0  9993
2 57138  43.0040  23.8509 0000952 269.8605  90.2129 15.02550952 76286
STARLINK-5355           
1 57139U 23090AQ  24313.48886387  .00002562  00000+0  20462-3 0  9995
2 57139  43.0024  23.7220 0000963 264.4384  95.6348 15.02547024 76283
STARLINK-5357           
1 57141U 23090AS  24313.48331527  .00003443  00000+0  26978-3 0  9996
2 57141  43.0032  23.6819 0000992 240.7149 119.3594 15.02541790 76287
STARLINK-5361           
1 57142U 23090AT  24313.61182625  .00004001  00000+0  31093-3 0  9990
2 57142  43.0025  22.9241 0001014 263.1474  96.9253 15.02556010 76303
STARLINK-5358           
1 57143U 23090AU  24313.47555843  .00003466  00000+0  27164-3 0  9999
2 57143  43.0081  23.6280 0002373 272.9359  87.1212 15.02524273 76286
STARLINK-5150           
1 57144U 23090AV  24312.62244374  .00002454  00000+0  19676-3 0  9995
2 57144  43.0046  28.4011 0001118 267.9654  92.1060 15.02525500 77104
STARLINK-5768           
1 57145U 23090AW  24312.66894050  .00000751  00000+0  70654-4 0  9994
2 57145  43.0078  27.8903 0001802 274.0988  85.9648 15.02529908 77111
STARLINK-5791           
1 57146U 23090AX  24313.47333818 -.00000636  00000+0 -31984-4 0  9992
2 57146  43.0087  23.6123 0002230 285.0328  75.0268 15.02529007 76281
STARLINK-5765           
1 57147U 23090AY  24313.46226229 -.00005054  00000+0 -35967-3 0  9992
2 57147  42.9996  23.5218 0000621 291.0195  69.0581 15.02501711 76287
STARLINK-5788           
1 57148U 23090AZ  24313.25613644  .00002536  00000+0  20278-3 0  9990
2 57148  43.0051  24.5526 0001748 273.2916  86.7727 15.02536282 76255
STARLINK-5778           
1 57149U 23090BA  24313.80844075  .00002174  00000+0  17592-3 0  9999
2 57149  43.0051 355.7780 0001075 284.9192  75.1531 15.02548935 76641
STARLINK-5780           
1 57150U 23090BB  24313.46999741  .00000788  00000+0  73369-4 0  9998
2 57150  43.0055  23.5794 0001216 255.7158 104.3549 15.02539238 76287
STARLINK-5776           
1 57151U 23090BC  24313.46889724 -.00001014  00000+0 -60031-4 0  9995
2 57151  43.0028  23.5728 0000377 289.8831  70.1970 15.02533621 76286
STARLINK-6164           
1 57152U 23090BD  24313.47221290  .00001868  00000+0  15323-3 0  9993
2 57152  43.0049  23.5973 0001108 275.0696  85.0020 15.02549469 76289
STARLINK-5879           
1 57153U 23090BE  24313.42930142  .00000429  00000+0  46839-4 0  9991
2 57153  43.0039  11.1188 0000700 280.4657  79.6107 15.02543910 76420
STARLINK-6106           
1 57154U 23090BF  24313.59630801  .00000166  00000+0  27335-4 0  9997
2 57154  43.0027  22.8101 0001080 288.4358  71.6367 15.02515251 76304
STARLINK-6108           
1 57155U 23090BG  24313.51539068  .00002112  00000+0  17138-3 0  9995
2 57155  43.0063  23.0606 0001754 275.0019  85.0623 15.02535412 76295
STARLINK-6137           
1 57156U 23090BH  24313.25281518 -.00000390  00000+0 -13835-4 0  9990
2 57156  43.0049  24.5301 0000901 272.0701  88.0038 15.02531451 76254
STARLINK-5525           
1 57218U 23094A   24313.26012397 -.00000103  00000+0  74078-5 0  9999
2 57218  43.0023 153.8592 0001063 284.7760  75.2964 15.02538231 74121
STARLINK-5520           
1 57219U 23094B   24312.99088024  .00000562  00000+0  56679-4 0  9993
2 57219  43.0038 155.2770 0001281 266.1192  93.9504 15.02536514 74081
STARLINK-5880           
1 57220U 23094C   24312.90887435 -.00003030  00000+0 -20924-3 0  9997
2 57220  42.9996 155.5185 0001255 266.3876  93.6823 15.02546825 74075
STARLINK-5875           
1 57221U 23094D   24313.85290791 -.00002989  00000+0 -20644-3 0  9997
2 57221  43.0036 150.5649 0000870 278.5580  81.5164 15.02504898 74216
STARLINK-5870           
1 57222U 23094E   24312.91552276  .00000881  00000+0  80290-4 0  9994
2 57222  43.0027 155.5717 0001333 265.0380  95.0310 15.02532720 74131
STARLINK-5519           
1 57223U 23094F   24312.91885986 -.00001061  00000+0 -63527-4 0  9999
2 57223  43.0024 155.5980 0001297 291.3267  68.7437 15.02530032 73899
STARLINK-5983           
1 57224U 23094G   24313.84288155 -.00000042  00000+0  11945-4 0  9992
2 57224  43.0033 150.4910 0001317 273.8124  86.2567 15.02540045 74218
STARLINK-6294           
1 57225U 23094H   24313.85175118  .00001805  00000+0  14863-3 0  9996
2 57225  43.0020 150.5520 0001151 276.6607  83.4104 15.02547714 74278
STARLINK-6350           
1 57226U 23094J   24312.90109274  .00000959  00000+0  86049-4 0  9997
2 57226  43.0026 155.4604 0001350 264.2745  95.7943 15.02533448 74073
STARLINK-5996           
1 57227U 23094K   24312.97200891  .00000895  00000+0  81356-4 0  9997
2 57227  43.0055 155.1355 0001299 264.2097  95.8597 15.02534919 74089
STARLINK-6230           
1 57228U 23094L   24313.82845132  .00002956  00000+0  23382-3 0  9990
2 57228  43.0068 150.3778 0001511 277.2444  82.8226 15.02539763 74219
STARLINK-6233           
1 57229U 23094M   24313.83511417  .00000899  00000+0  81622-4 0  9994
2 57229  43.0014 150.4298 0001089 266.9038  93.1680 15.02535441 74211
STARLINK-6250           
1 57230U 23094N   24313.82289825  .00001481  00000+0  12469-3 0  9990
2 57230  43.0022 150.3366 0001208 268.9613  91.1091 15.02541237 74215
STARLINK-5840           
1 57231U 23094P   24313.73311472 -.00004561  00000+0 -32256-3 0  9995
2 57231  43.0002 150.5224 0000721 263.1448  96.9312 15.02561562 74202
STARLINK-5872           
1 57232U 23094Q   24313.73200135  .00001579  00000+0  13191-3 0  9990
2 57232  43.0027 150.5101 0001166 270.1680  89.9028 15.02542365 74266
STARLINK-5866           
1 57233U 23094R   24313.73977586  .00000852  00000+0  78113-4 0  9991
2 57233  43.0029 150.5728 0001336 266.0345  94.0345 15.02538468 74207
STARLINK-6368           
1 57234U 23094S   24313.26444310  .00000997  00000+0  88865-4 0  9999
2 57234  43.0015 153.0260 0001074 274.9272  85.1447 15.02536656 74131
STARLINK-6360           
1 57235U 23094T   24313.27665584  .00000623  00000+0  61207-4 0  9996
2 57235  43.0031 153.1178 0001294 267.0920  92.9774 15.02529999 74137
STARLINK-6315           
1 57236U 23094U   24312.87261458 -.00002594  00000+0 -17693-3 0  9994
2 57236  43.0029 143.1069 0001778 294.5744  65.4913 15.02547675 74219
STARLINK-6365           
1 57237U 23094V   24312.73927891  .00000862  00000+0  78875-4 0  9994
2 57237  43.0028 155.9656 0001363 263.9966  96.0721 15.02536340 73873
STARLINK-6334           
1 57238U 23094W   24312.86483897  .00000177  00000+0  28208-4 0  9996
2 57238  43.0021 143.0422 0001193 258.9256 101.1452 15.02533074 74212
STARLINK-6330           
1 57239U 23094X   24312.99742358  .00000881  00000+0  80270-4 0  9990
2 57239  43.0033 154.4609 0001307 264.4898  95.5795 15.02531948 74090
STARLINK-6351           
1 57240U 23094Y   24313.25482937  .00000585  00000+0  58354-4 0  9995
2 57240  43.0050 140.8103 0001200 273.7503  86.3202 15.02532440 74276
STARLINK-6349           
1 57241U 23094Z   24313.79996821 -.00000013  00000+0  14069-4 0  9999
2 57241  43.0023 138.0197 0001117 275.3604  84.7111 15.02540467 74354
STARLINK-6306           
1 57242U 23094AA  24313.79663364  .00001363  00000+0  11595-3 0  9991
2 57242  43.0020 137.9945 0001126 270.9235  89.1478 15.02542722 74353
STARLINK-6346           
1 57243U 23094AB  24313.79884494  .00002025  00000+0  16486-3 0  9991
2 57243  43.0026 138.0149 0001449 292.5415  67.5273 15.02550290 74358
STARLINK-5610           
1 57244U 23094AC  24313.78887211 -.00000498  00000+0 -21759-4 0  9995
2 57244  43.0051 137.9320 0001776 269.2097  90.8542 15.02529169 74388
STARLINK-5587           
1 57245U 23094AD  24313.79220534  .00000586  00000+0  58439-4 0  9997
2 57245  43.0035 137.9606 0001186 266.8488  93.2218 15.02536085 74359
STARLINK-5049           
1 57246U 23094AE  24313.23151915  .00003505  00000+0  27436-3 0  9999
2 57246  43.0036 140.6283 0001217 261.2359  98.8345 15.02542696 74272
STARLINK-5039           
1 57247U 23094AF  24313.78553387 -.00000988  00000+0 -58032-4 0  9990
2 57247  43.0027 137.9107 0000838 278.7345  81.3402 15.02548408 74350
STARLINK-5514           
1 57248U 23094AG  24313.78221042  .00000713  00000+0  67886-4 0  9992
2 57248  43.0054 137.8873 0001270 261.1413  98.9286 15.02536873 74350
STARLINK-5517           
1 57249U 23094AH  24313.77998049  .00001100  00000+0  96460-4 0  9991
2 57249  43.0002 137.8103 0001306 267.9526  92.1166 15.02539546 74352
STARLINK-5488           
1 57250U 23094AJ  24313.23817579  .00002407  00000+0  19317-3 0  9998
2 57250  43.0001 140.6841 0001535 267.1534  92.9133 15.02538674 74273
